[{"OBJECT_NAME":"STARLINK-35973","OBJECT_ID":"2025-271R","EPOCH":"2026-03-09T11:21:39.053088","MEAN_MOTION":15.30203912,"ECCENTRICITY":9.323e-5,"INCLINATION":53.1577,"RA_OF_ASC_NODE":140.9367,"ARG_OF_PERICENTER":72.1712,"MEAN_ANOMALY":287.9391,"EPHEMERIS_TYPE":0,"CLASSIFICATION_TYPE":"U","NORAD_CAT_ID":66632,"ELEMENT_SET_NO":999,"REV_AT_EPOCH":1749,"BSTAR":0.00082798453,"MEAN_MOTION_DOT":0.00024246,"MEAN_MOTION_DDOT":0},{"OBJECT_NAME":"COSMOS 1782","OBJECT_ID":"1986-074A","EPOCH":"2026-03-09T22:40:22.374624","MEAN_MOTION":15.33314157,"ECCENTRICITY":0.00054418,"INCLINATION":82.5242,"RA_OF_ASC_NODE":238.1482,"ARG_OF_PERICENTER":197.7479,"MEAN_ANOMALY":162.3574,"EPHEMERIS_TYPE":0,"CLASSIFICATION_TYPE":"U","NORAD_CAT_ID":16986,"ELEMENT_SET_NO":999,"REV_AT_EPOCH":13134,"BSTAR":0.00042191031,"MEAN_MOTION_DOT":0.00013623,"MEAN_MOTION_DDOT":0}]
